GSAT-19                 
1 42747U 17031A   26095.54055168  .00000127  00000+0  00000+0 0  9990
2 42747   0.0962  84.8128 0005508 322.8842  28.5705  1.00271444 32411
ECHOSTAR 21             
1 42749U 17032A   26095.33655757  .00000066  00000+0  00000+0 0  9992
2 42749   1.7845 350.9119 0002511  22.0570 312.0896  1.00274274 32366
ZHONGXING-9A            
1 42763U 17035A   26095.61484957  .00000116  00000+0  00000+0 0  9990
2 42763   4.7985  76.1114 0006097 294.5342 103.0855  0.99778672 32932
BULGARIASAT-1           
1 42801U 17038A   26095.22822667  .00000013  00000+0  00000+0 0  9993
2 42801   0.0552  79.8892 0003408 311.1245 246.5740  1.00274567 32111
HELLAS-SAT 3            
1 42814U 17040A   26095.53881835  .00000154  00000+0  00000+0 0  9992
2 42814   0.0637  36.3627 0005290 345.2631  45.1806  1.00270557 32077
GSAT-17                 
1 42815U 17040B   26095.63428637 -.00000256  00000+0  00000+0 0  9995
2 42815   0.0688  75.5560 0003998 233.6180 206.5923  1.00273266 32069
INTELSAT 35E (IS-35E)   
1 42818U 17041A   26095.23901653 -.00000237  00000+0  00000+0 0  9998
2 42818   0.0159 217.4245 0002132 159.2084 228.4468  1.00272847 32080
COSMOS 2520             
1 42907U 17046A   26095.53994501  .00000138  00000+0  00000+0 0  9998
2 42907   0.0253 123.5794 0000203   4.3432 305.3136  1.00270664 31669
TDRS 13                 
1 42915U 17047A   26095.24352319 -.00000098  00000+0  00000+0 0  9997
2 42915   3.4359   0.8798 0012156  97.1842 171.6757  1.00272481 31615
QZS-3 (MICHIBIKI-3)     
1 42917U 17048A   26095.55623840 -.00000346  00000+0  00000+0 0  9990
2 42917   0.0647 143.4164 0002129 236.5566 141.1643  1.00271047 31536
AMAZONAS 5              
1 42934U 17053A   26095.51897159 -.00000281  00000+0  00000+0 0  9995
2 42934   0.0432 310.4025 0004765  40.6967 328.5445  1.00269112 31313
ASIASAT 9               
1 42942U 17057A   26093.91516615 -.00000361  00000+0  00000+0 0  9994
2 42942   0.0140 218.3204 0002220 152.0238 273.4532  1.00270306 31116
INTELSAT 37E (IS-37E)   
1 42950U 17059A   26095.34766765 -.00000139  00000+0  00000+0 0  9990
2 42950   0.0164 182.2934 0002170 211.1627 267.3431  1.00272840 31332
BSAT-4A                 
1 42951U 17059B   26095.60595653 -.00000348  00000+0  00000+0 0  9998
2 42951   0.0810  53.7590 0004684 345.5178 122.6029  1.00270482 31073
SES-11 (ECHOSTAR 105)   
1 42967U 17063A   26095.51030488 -.00000088  00000+0  00000+0 0  9991
2 42967   0.0514  53.9727 0002855 339.2372 239.3641  1.00272420 30999
KOREASAT 5A             
1 42984U 17067A   26095.57640402 -.00000357  00000+0  00000+0 0  9992
2 42984   0.0079 179.2725 0002173 225.9139 109.3544  1.00272826 30807
ALCOMSAT 1              
1 43039U 17078A   26095.17614237 -.00000185  00000+0  00000+0 0  9998
2 43039   0.0353  94.3663 0002527 266.9939 230.7235  1.00270917 30566
