[{"OBJECT_NAME":"GSAT-19","OBJECT_ID":"2017-031A","EPOCH":"2026-04-05T12:58:23.665152","MEAN_MOTION":1.00271444,"ECCENTRICITY":0.00055086,"INCLINATION":0.0962,"RA_OF_ASC_NODE":84.8128,"ARG_OF_PERICENTER":322.8842,"MEAN_ANOMALY":28.5705,"EPHEMERIS_TYPE":0,"CLASSIFICATION_TYPE":"U","NORAD_CAT_ID":42747,"ELEMENT_SET_NO":999,"REV_AT_EPOCH":3241,"BSTAR":0,"MEAN_MOTION_DOT":1.27e-6,"MEAN_MOTION_DDOT":0},{"OBJECT_NAME":"ECHOSTAR 21","OBJECT_ID":"2017-032A","EPOCH":"2026-04-05T08:04:38.574048","MEAN_MOTION":1.00274274,"ECCENTRICITY":0.00025112,"INCLINATION":1.7845,"RA_OF_ASC_NODE":350.9119,"ARG_OF_PERICENTER":22.057,"MEAN_ANOMALY":312.0896,"EPHEMERIS_TYPE":0,"CLASSIFICATION_TYPE":"U","NORAD_CAT_ID":42749,"ELEMENT_SET_NO":999,"REV_AT_EPOCH":3236,"BSTAR":0,"MEAN_MOTION_DOT":6.6e-7,"MEAN_MOTION_DDOT":0},{"OBJECT_NAME":"ZHONGXING-9A","OBJECT_ID":"2017-035A","EPOCH":"2026-04-05T14:45:23.002848","MEAN_MOTION":0.99778672,"ECCENTRICITY":0.0006097,"INCLINATION":4.7985,"RA_OF_ASC_NODE":76.1114,"ARG_OF_PERICENTER":294.5342,"MEAN_ANOMALY":103.0855,"EPHEMERIS_TYPE":0,"CLASSIFICATION_TYPE":"U","NORAD_CAT_ID":42763,"ELEMENT_SET_NO":999,"REV_AT_EPOCH":3293,"BSTAR":0,"MEAN_MOTION_DOT":1.16e-6,"MEAN_MOTION_DDOT":0},{"OBJECT_NAME":"BULGARIASAT-1","OBJECT_ID":"2017-038A","EPOCH":"2026-04-05T05:28:38.784288","MEAN_MOTION":1.00274567,"ECCENTRICITY":0.0003408,"INCLINATION":0.0552,"RA_OF_ASC_NODE":79.8892,"ARG_OF_PERICENTER":311.1245,"MEAN_ANOMALY":246.574,"EPHEMERIS_TYPE":0,"CLASSIFICATION_TYPE":"U","NORAD_CAT_ID":42801,"ELEMENT_SET_NO":999,"REV_AT_EPOCH":3211,"BSTAR":0,"MEAN_MOTION_DOT":1.3e-7,"MEAN_MOTION_DDOT":0},{"OBJECT_NAME":"HELLAS-SAT 3","OBJECT_ID":"2017-040A","EPOCH":"2026-04-05T12:55:53.905440","MEAN_MOTION":1.00270557,"ECCENTRICITY":0.00052902,"INCLINATION":0.0637,"RA_OF_ASC_NODE":36.3627,"ARG_OF_PERICENTER":345.2631,"MEAN_ANOMALY":45.1806,"EPHEMERIS_TYPE":0,"CLASSIFICATION_TYPE":"U","NORAD_CAT_ID":42814,"ELEMENT_SET_NO":999,"REV_AT_EPOCH":3207,"BSTAR":0,"MEAN_MOTION_DOT":1.54e-6,"MEAN_MOTION_DDOT":0},{"OBJECT_NAME":"GSAT-17","OBJECT_ID":"2017-040B","EPOCH":"2026-04-05T15:13:22.342368","MEAN_MOTION":1.00273266,"ECCENTRICITY":0.00039981,"INCLINATION":0.0688,"RA_OF_ASC_NODE":75.556,"ARG_OF_PERICENTER":233.618,"MEAN_ANOMALY":206.5923,"EPHEMERIS_TYPE":0,"CLASSIFICATION_TYPE":"U","NORAD_CAT_ID":42815,"ELEMENT_SET_NO":999,"REV_AT_EPOCH":3206,"BSTAR":0,"MEAN_MOTION_DOT":-2.56e-6,"MEAN_MOTION_DDOT":0},{"OBJECT_NAME":"INTELSAT 35E (IS-35E)","OBJECT_ID":"2017-041A","EPOCH":"2026-04-05T05:44:11.028192","MEAN_MOTION":1.00272847,"ECCENTRICITY":0.00021328,"INCLINATION":0.0159,"RA_OF_ASC_NODE":217.4245,"ARG_OF_PERICENTER":159.2084,"MEAN_ANOMALY":228.4468,"EPHEMERIS_TYPE":0,"CLASSIFICATION_TYPE":"U","NORAD_CAT_ID":42818,"ELEMENT_SET_NO":999,"REV_AT_EPOCH":3208,"BSTAR":0,"MEAN_MOTION_DOT":-2.37e-6,"MEAN_MOTION_DDOT":0},{"OBJECT_NAME":"COSMOS 2520","OBJECT_ID":"2017-046A","EPOCH":"2026-04-05T12:57:31.248864","MEAN_MOTION":1.00270664,"ECCENTRICITY":2.037e-5,"INCLINATION":0.0253,"RA_OF_ASC_NODE":123.5794,"ARG_OF_PERICENTER":4.3432,"MEAN_ANOMALY":305.3136,"EPHEMERIS_TYPE":0,"CLASSIFICATION_TYPE":"U","NORAD_CAT_ID":42907,"ELEMENT_SET_NO":999,"REV_AT_EPOCH":3166,"BSTAR":0,"MEAN_MOTION_DOT":1.38e-6,"MEAN_MOTION_DDOT":0},{"OBJECT_NAME":"TDRS 13","OBJECT_ID":"2017-047A","EPOCH":"2026-04-05T05:50:40.403616","MEAN_MOTION":1.00272481,"ECCENTRICITY":0.0012156,"INCLINATION":3.4359,"RA_OF_ASC_NODE":0.8798,"ARG_OF_PERICENTER":97.1842,"MEAN_ANOMALY":171.6757,"EPHEMERIS_TYPE":0,"CLASSIFICATION_TYPE":"U","NORAD_CAT_ID":42915,"ELEMENT_SET_NO":999,"REV_AT_EPOCH":3161,"BSTAR":0,"MEAN_MOTION_DOT":-9.8e-7,"MEAN_MOTION_DDOT":0},{"OBJECT_NAME":"QZS-3 (MICHIBIKI-3)","OBJECT_ID":"2017-048A","EPOCH":"2026-04-05T13:20:58.997760","MEAN_MOTION":1.00271047,"ECCENTRICITY":0.00021296,"INCLINATION":0.0647,"RA_OF_ASC_NODE":143.4164,"ARG_OF_PERICENTER":236.5566,"MEAN_ANOMALY":141.1643,"EPHEMERIS_TYPE":0,"CLASSIFICATION_TYPE":"U","NORAD_CAT_ID":42917,"ELEMENT_SET_NO":999,"REV_AT_EPOCH":3153,"BSTAR":0,"MEAN_MOTION_DOT":-3.46e-6,"MEAN_MOTION_DDOT":0},{"OBJECT_NAME":"AMAZONAS 5","OBJECT_ID":"2017-053A","EPOCH":"2026-04-05T12:27:19.145376","MEAN_MOTION":1.00269112,"ECCENTRICITY":0.0004765,"INCLINATION":0.0432,"RA_OF_ASC_NODE":310.4025,"ARG_OF_PERICENTER":40.6967,"MEAN_ANOMALY":328.5445,"EPHEMERIS_TYPE":0,"CLASSIFICATION_TYPE":"U","NORAD_CAT_ID":42934,"ELEMENT_SET_NO":999,"REV_AT_EPOCH":3131,"BSTAR":0,"MEAN_MOTION_DOT":-2.81e-6,"MEAN_MOTION_DDOT":0},{"OBJECT_NAME":"ASIASAT 9","OBJECT_ID":"2017-057A","EPOCH":"2026-04-03T21:57:50.355360","MEAN_MOTION":1.00270306,"ECCENTRICITY":0.00022206,"INCLINATION":0.014,"RA_OF_ASC_NODE":218.3204,"ARG_OF_PERICENTER":152.0238,"MEAN_ANOMALY":273.4532,"EPHEMERIS_TYPE":0,"CLASSIFICATION_TYPE":"U","NORAD_CAT_ID":42942,"ELEMENT_SET_NO":999,"REV_AT_EPOCH":3111,"BSTAR":0,"MEAN_MOTION_DOT":-3.61e-6,"MEAN_MOTION_DDOT":0},{"OBJECT_NAME":"INTELSAT 37E (IS-37E)","OBJECT_ID":"2017-059A","EPOCH":"2026-04-05T08:20:38.484960","MEAN_MOTION":1.0027284,"ECCENTRICITY":0.00021709,"INCLINATION":0.0164,"RA_OF_ASC_NODE":182.2934,"ARG_OF_PERICENTER":211.1627,"MEAN_ANOMALY":267.3431,"EPHEMERIS_TYPE":0,"CLASSIFICATION_TYPE":"U","NORAD_CAT_ID":42950,"ELEMENT_SET_NO":999,"REV_AT_EPOCH":3133,"BSTAR":0,"MEAN_MOTION_DOT":-1.39e-6,"MEAN_MOTION_DDOT":0},{"OBJECT_NAME":"BSAT-4A","OBJECT_ID":"2017-059B","EPOCH":"2026-04-05T14:32:34.644192","MEAN_MOTION":1.00270482,"ECCENTRICITY":0.00046849,"INCLINATION":0.081,"RA_OF_ASC_NODE":53.759,"ARG_OF_PERICENTER":345.5178,"MEAN_ANOMALY":122.6029,"EPHEMERIS_TYPE":0,"CLASSIFICATION_TYPE":"U","NORAD_CAT_ID":42951,"ELEMENT_SET_NO":999,"REV_AT_EPOCH":3107,"BSTAR":0,"MEAN_MOTION_DOT":-3.48e-6,"MEAN_MOTION_DDOT":0},{"OBJECT_NAME":"SES-11 (ECHOSTAR 105)","OBJECT_ID":"2017-063A","EPOCH":"2026-04-05T12:14:50.341632","MEAN_MOTION":1.0027242,"ECCENTRICITY":0.0002855,"INCLINATION":0.0514,"RA_OF_ASC_NODE":53.9727,"ARG_OF_PERICENTER":339.2372,"MEAN_ANOMALY":239.3641,"EPHEMERIS_TYPE":0,"CLASSIFICATION_TYPE":"U","NORAD_CAT_ID":42967,"ELEMENT_SET_NO":999,"REV_AT_EPOCH":3099,"BSTAR":0,"MEAN_MOTION_DOT":-8.8e-7,"MEAN_MOTION_DDOT":0},{"OBJECT_NAME":"KOREASAT 5A","OBJECT_ID":"2017-067A","EPOCH":"2026-04-05T13:50:01.307328","MEAN_MOTION":1.00272826,"ECCENTRICITY":0.0002173,"INCLINATION":0.0079,"RA_OF_ASC_NODE":179.2725,"ARG_OF_PERICENTER":225.9139,"MEAN_ANOMALY":109.3544,"EPHEMERIS_TYPE":0,"CLASSIFICATION_TYPE":"U","NORAD_CAT_ID":42984,"ELEMENT_SET_NO":999,"REV_AT_EPOCH":3080,"BSTAR":0,"MEAN_MOTION_DOT":-3.57e-6,"MEAN_MOTION_DDOT":0},{"OBJECT_NAME":"ALCOMSAT 1","OBJECT_ID":"2017-078A","EPOCH":"2026-04-05T04:13:38.700768","MEAN_MOTION":1.00270917,"ECCENTRICITY":0.0002527,"INCLINATION":0.0353,"RA_OF_ASC_NODE":94.3663,"ARG_OF_PERICENTER":266.9939,"MEAN_ANOMALY":230.7235,"EPHEMERIS_TYPE":0,"CLASSIFICATION_TYPE":"U","NORAD_CAT_ID":43039,"ELEMENT_SET_NO":999,"REV_AT_EPOCH":3056,"BSTAR":0,"MEAN_MOTION_DOT":-1.85e-6,"MEAN_MOTION_DDOT":0}]
